IRIDIUM 106             
1 41917U 17003A   24325.52849793  .00000275  00000+0  91101-4 0  9995
2 41917  86.3950 328.2629 0002209  81.6595 278.4851 14.34217670410986
IRIDIUM 103             
1 41918U 17003B   24325.51581245  .00000228  00000+0  74492-4 0  9992
2 41918  86.3951 328.1696 0002864  84.3233 275.8289 14.34218043411002
IRIDIUM 109             
1 41919U 17003C   24324.96401894  .00000314  00000+0  10506-3 0  9993
2 41919  86.3953 328.4505 0002458  95.3784 264.7692 14.34219696410895
IRIDIUM 102             
1 41920U 17003D   24325.49043842  .00000140  00000+0  42875-4 0  9991
2 41920  86.3949 328.1659 0002197  92.3619 267.7828 14.34217365411057
IRIDIUM 105             
1 41921U 17003E   24325.46118145  .00000591  00000+0  20398-3 0  9993
2 41921  86.3935 296.5968 0002349  81.8188 278.3274 14.34225971412907
IRIDIUM 104             
1 41922U 17003F   24325.08452080  .00000294  00000+0  97752-4 0  9990
2 41922  86.3950 328.3695 0002747  99.9919 260.1587 14.34218091410987
IRIDIUM 114             
1 41923U 17003G   24325.36992983  .00000263  00000+0  86699-4 0  9997
2 41923  86.3950 328.2355 0002467  87.9000 272.2479 14.34216348411008
IRIDIUM 108             
1 41924U 17003H   24325.39822142  .00000440  00000+0  14991-3 0  9992
2 41924  86.3930 296.5378 0002120  81.7946 278.3490 14.34219807412864
